[{"OBJECT_NAME":"STARLINK-30218","OBJECT_ID":"2023-119C","EPOCH":"2026-03-09T22:00:01.999584","MEAN_MOTION":15.18457139,"ECCENTRICITY":0.00017218,"INCLINATION":43.0002,"RA_OF_ASC_NODE":79.8846,"ARG_OF_PERICENTER":291.5867,"MEAN_ANOMALY":147.4307,"EPHEMERIS_TYPE":0,"CLASSIFICATION_TYPE":"U","NORAD_CAT_ID":57604,"ELEMENT_SET_NO":999,"REV_AT_EPOCH":567,"BSTAR":0.057976743,"MEAN_MOTION_DOT":0.01319901,"MEAN_MOTION_DDOT":0},{"OBJECT_NAME":"DEIMOS","OBJECT_ID":"2024-149BL","EPOCH":"2026-03-09T18:15:22.104864","MEAN_MOTION":15.40482219,"ECCENTRICITY":0.00045078,"INCLINATION":97.3812,"RA_OF_ASC_NODE":153.6981,"ARG_OF_PERICENTER":283.7118,"MEAN_ANOMALY":76.3626,"EPHEMERIS_TYPE":0,"CLASSIFICATION_TYPE":"U","NORAD_CAT_ID":60526,"ELEMENT_SET_NO":999,"REV_AT_EPOCH":8712,"BSTAR":0.0005120241,"MEAN_MOTION_DOT":0.00020707,"MEAN_MOTION_DDOT":0}]
